{
    "links": {
        "self": "http://www.neowsapp.com/rest/v1/neo/3835973?api_key=iIulBulltgU6a56xZRHN4H3l9WmuAYTsLGpBGhQ2"
    },
    "id": "3835973",
    "neo_reference_id": "3835973",
    "name": "(2018 VL1)",
    "designation": "2018 VL1",
    "nasa_jpl_url": "http://ssd.jpl.nasa.gov/sbdb.cgi?sstr=3835973",
    "absolute_magnitude_h": 22.1,
    "estimated_diameter": {
        "kilometers": {
            "estimated_diameter_min": 0.1010543415,
            "estimated_diameter_max": 0.2259643771
        },
        "meters": {
            "estimated_diameter_min": 101.054341542,
            "estimated_diameter_max": 225.9643771094
        },
        "miles": {
            "estimated_diameter_min": 0.0627922373,
            "estimated_diameter_max": 0.140407711
        },
        "feet": {
            "estimated_diameter_min": 331.5431259047,
            "estimated_diameter_max": 741.3529669956
        }
    },
    "is_potentially_hazardous_asteroid": false,
    "close_approach_data": [
        {
            "close_approach_date": "2018-11-20",
            "close_approach_date_full": "2018-Nov-20 19:57",
            "epoch_date_close_approach": 1542743820000,
            "relative_velocity": {
                "kilometers_per_second": "16.1440092678",
                "kilometers_per_hour": "58118.4333640822",
                "miles_per_hour": "36112.5343311432"
            },
            "miss_distance": {
                "astronomical": "0.1408886611",
                "lunar": "54.8056891679",
                "kilometers": "21076643.607711857",
                "miles": "13096419.0488113466"
            },
            "orbiting_body": "Earth"
        }
    ],
    "orbital_data": {
        "orbit_id": "8",
        "orbit_determination_date": "2020-09-14 06:53:33",
        "first_observation_date": "2018-11-02",
        "last_observation_date": "2018-11-18",
        "data_arc_in_days": 16,
        "observations_used": 65,
        "orbit_uncertainty": "8",
        "minimum_orbit_intersection": ".138291",
        "jupiter_tisserand_invariant": "2.957",
        "epoch_osculation": "2458427.5",
        "eccentricity": ".6797597106613147",
        "semi_major_axis": "2.665265255712581",
        "inclination": "16.89875210032585",
        "ascending_node_longitude": "213.5606939071294",
        "orbital_period": "1589.311711571866",
        "perihelion_distance": ".8535253166537419",
        "perihelion_argument": "262.1891211502434",
        "aphelion_distance": "4.47700519477142",
        "perihelion_time": "2458484.925037391884",
        "mean_anomaly": "346.9924739680977",
        "mean_motion": ".2265131486660674",
        "equinox": "J2000",
        "orbit_class": {
            "orbit_class_type": "APO",
            "orbit_class_description": "Near-Earth asteroid orbits which cross the Earth’s orbit similar to that of 1862 Apollo",
            "orbit_class_range": "a (semi-major axis) > 1.0 AU; q (perihelion) < 1.017 AU"
        }
    },
    "is_sentry_object": false
}